[{"OBJECT_NAME":"STARLINK-32724","OBJECT_ID":"2024-251K","EPOCH":"2026-03-27T17:47:06.261216","MEAN_MOTION":15.30211987,"ECCENTRICITY":9.22e-5,"INCLINATION":53.1566,"RA_OF_ASC_NODE":251.3508,"ARG_OF_PERICENTER":69.1882,"MEAN_ANOMALY":290.9217,"EPHEMERIS_TYPE":0,"CLASSIFICATION_TYPE":"U","NORAD_CAT_ID":62441,"ELEMENT_SET_NO":999,"REV_AT_EPOCH":7055,"BSTAR":0.00054495,"MEAN_MOTION_DOT":0.00015821,"MEAN_MOTION_DDOT":0},{"OBJECT_NAME":"STARLINK-32291","OBJECT_ID":"2024-251L","EPOCH":"2026-03-27T19:33:18.656064","MEAN_MOTION":15.30197724,"ECCENTRICITY":6.95e-5,"INCLINATION":53.1565,"RA_OF_ASC_NODE":251.0973,"ARG_OF_PERICENTER":69.9778,"MEAN_ANOMALY":290.1297,"EPHEMERIS_TYPE":0,"CLASSIFICATION_TYPE":"U","NORAD_CAT_ID":62442,"ELEMENT_SET_NO":999,"REV_AT_EPOCH":7041,"BSTAR":0.00044481,"MEAN_MOTION_DOT":0.00012837,"MEAN_MOTION_DDOT":0},{"OBJECT_NAME":"STARLINK-32736","OBJECT_ID":"2024-251M","EPOCH":"2026-03-27T19:43:57.125280","MEAN_MOTION":15.30195761,"ECCENTRICITY":9.57e-5,"INCLINATION":53.1584,"RA_OF_ASC_NODE":251.148,"ARG_OF_PERICENTER":72.7544,"MEAN_ANOMALY":287.3561,"EPHEMERIS_TYPE":0,"CLASSIFICATION_TYPE":"U","NORAD_CAT_ID":62443,"ELEMENT_SET_NO":999,"REV_AT_EPOCH":7056,"BSTAR":0.00091816,"MEAN_MOTION_DOT":0.00026929,"MEAN_MOTION_DDOT":0},{"OBJECT_NAME":"STARLINK-32737","OBJECT_ID":"2024-251N","EPOCH":"2026-03-27T17:38:44.620224","MEAN_MOTION":15.30212743,"ECCENTRICITY":8.81e-5,"INCLINATION":53.1557,"RA_OF_ASC_NODE":249.1826,"ARG_OF_PERICENTER":80.2918,"MEAN_ANOMALY":279.8182,"EPHEMERIS_TYPE":0,"CLASSIFICATION_TYPE":"U","NORAD_CAT_ID":62444,"ELEMENT_SET_NO":999,"REV_AT_EPOCH":7074,"BSTAR":0.00045155,"MEAN_MOTION_DOT":0.00013043,"MEAN_MOTION_DDOT":0},{"OBJECT_NAME":"STARLINK-32683","OBJECT_ID":"2024-251P","EPOCH":"2026-03-27T18:35:43.401696","MEAN_MOTION":15.30224111,"ECCENTRICITY":8.55e-5,"INCLINATION":53.1586,"RA_OF_ASC_NODE":251.5573,"ARG_OF_PERICENTER":82.9935,"MEAN_ANOMALY":277.1163,"EPHEMERIS_TYPE":0,"CLASSIFICATION_TYPE":"U","NORAD_CAT_ID":62445,"ELEMENT_SET_NO":999,"REV_AT_EPOCH":7071,"BSTAR":0.00087958,"MEAN_MOTION_DOT":0.00025801,"MEAN_MOTION_DDOT":0},{"OBJECT_NAME":"STARLINK-32726","OBJECT_ID":"2024-251Q","EPOCH":"2026-03-27T17:45:35.022816","MEAN_MOTION":15.30189781,"ECCENTRICITY":0.0001029,"INCLINATION":53.1544,"RA_OF_ASC_NODE":251.3401,"ARG_OF_PERICENTER":83.5077,"MEAN_ANOMALY":276.6041,"EPHEMERIS_TYPE":0,"CLASSIFICATION_TYPE":"U","NORAD_CAT_ID":62446,"ELEMENT_SET_NO":999,"REV_AT_EPOCH":7040,"BSTAR":0.00089363,"MEAN_MOTION_DOT":0.00026193,"MEAN_MOTION_DDOT":0},{"OBJECT_NAME":"STARLINK-32730","OBJECT_ID":"2024-251R","EPOCH":"2026-03-27T20:00:01.999008","MEAN_MOTION":15.301695,"ECCENTRICITY":9.33e-5,"INCLINATION":53.1571,"RA_OF_ASC_NODE":250.8264,"ARG_OF_PERICENTER":74.0241,"MEAN_ANOMALY":121.4217,"EPHEMERIS_TYPE":0,"CLASSIFICATION_TYPE":"U","NORAD_CAT_ID":62447,"ELEMENT_SET_NO":999,"REV_AT_EPOCH":585,"BSTAR":0.0016212,"MEAN_MOTION_DOT":0.00047921,"MEAN_MOTION_DDOT":0},{"OBJECT_NAME":"STARLINK-32719","OBJECT_ID":"2024-251S","EPOCH":"2026-03-27T17:30:31.296960","MEAN_MOTION":15.30164531,"ECCENTRICITY":0.0001356,"INCLINATION":53.1577,"RA_OF_ASC_NODE":251.8409,"ARG_OF_PERICENTER":89.1123,"MEAN_ANOMALY":271.0033,"EPHEMERIS_TYPE":0,"CLASSIFICATION_TYPE":"U","NORAD_CAT_ID":62448,"ELEMENT_SET_NO":999,"REV_AT_EPOCH":7053,"BSTAR":0.0007713,"MEAN_MOTION_DOT":0.00022529,"MEAN_MOTION_DDOT":0},{"OBJECT_NAME":"STARLINK-32723","OBJECT_ID":"2024-251T","EPOCH":"2026-03-27T17:48:37.324224","MEAN_MOTION":15.30188007,"ECCENTRICITY":0.000126,"INCLINATION":53.1582,"RA_OF_ASC_NODE":251.3586,"ARG_OF_PERICENTER":98.2161,"MEAN_ANOMALY":261.8983,"EPHEMERIS_TYPE":0,"CLASSIFICATION_TYPE":"U","NORAD_CAT_ID":62449,"ELEMENT_SET_NO":999,"REV_AT_EPOCH":7055,"BSTAR":0.00060845,"MEAN_MOTION_DOT":0.00017698,"MEAN_MOTION_DDOT":0},{"OBJECT_NAME":"STARLINK-32722","OBJECT_ID":"2024-251U","EPOCH":"2026-03-27T17:41:01.433760","MEAN_MOTION":15.30198879,"ECCENTRICITY":9.99e-5,"INCLINATION":53.157,"RA_OF_ASC_NODE":251.319,"ARG_OF_PERICENTER":87.7723,"MEAN_ANOMALY":272.3392,"EPHEMERIS_TYPE":0,"CLASSIFICATION_TYPE":"U","NORAD_CAT_ID":62450,"ELEMENT_SET_NO":999,"REV_AT_EPOCH":7034,"BSTAR":0.00096432,"MEAN_MOTION_DOT":0.00028309,"MEAN_MOTION_DDOT":0},{"OBJECT_NAME":"STARLINK-32720","OBJECT_ID":"2024-251V","EPOCH":"2026-03-27T18:25:05.780928","MEAN_MOTION":15.30216469,"ECCENTRICITY":0.0001313,"INCLINATION":53.1583,"RA_OF_ASC_NODE":251.5153,"ARG_OF_PERICENTER":63.407,"MEAN_ANOMALY":296.7065,"EPHEMERIS_TYPE":0,"CLASSIFICATION_TYPE":"U","NORAD_CAT_ID":62451,"ELEMENT_SET_NO":999,"REV_AT_EPOCH":7034,"BSTAR":0.00018008,"MEAN_MOTION_DOT":4.98e-5,"MEAN_MOTION_DDOT":0},{"OBJECT_NAME":"STARLINK-32656","OBJECT_ID":"2024-251W","EPOCH":"2026-03-27T18:46:21.970272","MEAN_MOTION":15.30191148,"ECCENTRICITY":0.0001188,"INCLINATION":53.1587,"RA_OF_ASC_NODE":251.6035,"ARG_OF_PERICENTER":80.2712,"MEAN_ANOMALY":279.8423,"EPHEMERIS_TYPE":0,"CLASSIFICATION_TYPE":"U","NORAD_CAT_ID":62452,"ELEMENT_SET_NO":999,"REV_AT_EPOCH":7055,"BSTAR":0.0011173,"MEAN_MOTION_DOT":0.00032868,"MEAN_MOTION_DDOT":0},{"OBJECT_NAME":"STARLINK-32690","OBJECT_ID":"2024-251X","EPOCH":"2026-03-27T17:36:27.862848","MEAN_MOTION":15.30182527,"ECCENTRICITY":0.0001116,"INCLINATION":53.1574,"RA_OF_ASC_NODE":251.301,"ARG_OF_PERICENTER":90.4488,"MEAN_ANOMALY":269.6641,"EPHEMERIS_TYPE":0,"CLASSIFICATION_TYPE":"U","NORAD_CAT_ID":62453,"ELEMENT_SET_NO":999,"REV_AT_EPOCH":7033,"BSTAR":0.00079782,"MEAN_MOTION_DOT":0.00023332,"MEAN_MOTION_DDOT":0},{"OBJECT_NAME":"STARLINK-11518 [DTC]","OBJECT_ID":"2024-254A","EPOCH":"2026-03-27T18:58:11.059392","MEAN_MOTION":15.7087321,"ECCENTRICITY":5.36e-5,"INCLINATION":43.0006,"RA_OF_ASC_NODE":114.2691,"ARG_OF_PERICENTER":15.8837,"MEAN_ANOMALY":344.2048,"EPHEMERIS_TYPE":0,"CLASSIFICATION_TYPE":"U","NORAD_CAT_ID":62462,"ELEMENT_SET_NO":999,"REV_AT_EPOCH":7225,"BSTAR":0.0015664,"MEAN_MOTION_DOT":0.00205885,"MEAN_MOTION_DDOT":0},{"OBJECT_NAME":"STARLINK-11455 [DTC]","OBJECT_ID":"2024-254B","EPOCH":"2026-03-27T19:05:49.879680","MEAN_MOTION":15.70844553,"ECCENTRICITY":4.78e-5,"INCLINATION":43.0006,"RA_OF_ASC_NODE":114.3108,"ARG_OF_PERICENTER":51.0349,"MEAN_ANOMALY":309.0562,"EPHEMERIS_TYPE":0,"CLASSIFICATION_TYPE":"U","NORAD_CAT_ID":62463,"ELEMENT_SET_NO":999,"REV_AT_EPOCH":7224,"BSTAR":0.0014391,"MEAN_MOTION_DOT":0.00188494,"MEAN_MOTION_DDOT":0},{"OBJECT_NAME":"STARLINK-11178 [DTC]","OBJECT_ID":"2024-254D","EPOCH":"2026-03-27T18:42:54.185184","MEAN_MOTION":15.70892663,"ECCENTRICITY":0.000214,"INCLINATION":43.0002,"RA_OF_ASC_NODE":114.1834,"ARG_OF_PERICENTER":57.0891,"MEAN_ANOMALY":303.0182,"EPHEMERIS_TYPE":0,"CLASSIFICATION_TYPE":"U","NORAD_CAT_ID":62465,"ELEMENT_SET_NO":999,"REV_AT_EPOCH":7208,"BSTAR":0.0019375,"MEAN_MOTION_DOT":0.00256554,"MEAN_MOTION_DDOT":0},{"OBJECT_NAME":"STARLINK-11506 [DTC]","OBJECT_ID":"2024-254E","EPOCH":"2026-03-27T08:32:21.521760","MEAN_MOTION":15.70861538,"ECCENTRICITY":9.7e-5,"INCLINATION":43.0005,"RA_OF_ASC_NODE":116.1395,"ARG_OF_PERICENTER":253.0164,"MEAN_ANOMALY":107.0597,"EPHEMERIS_TYPE":0,"CLASSIFICATION_TYPE":"U","NORAD_CAT_ID":62466,"ELEMENT_SET_NO":999,"REV_AT_EPOCH":7202,"BSTAR":0.0014796,"MEAN_MOTION_DOT":0.00194079,"MEAN_MOTION_DDOT":0},{"OBJECT_NAME":"STARLINK-11486 [DTC]","OBJECT_ID":"2024-254F","EPOCH":"2026-03-27T18:50:31.871904","MEAN_MOTION":15.70967908,"ECCENTRICITY":0.0001993,"INCLINATION":43.0021,"RA_OF_ASC_NODE":114.2237,"ARG_OF_PERICENTER":282.9081,"MEAN_ANOMALY":77.1564,"EPHEMERIS_TYPE":0,"CLASSIFICATION_TYPE":"U","NORAD_CAT_ID":62467,"ELEMENT_SET_NO":999,"REV_AT_EPOCH":7224,"BSTAR":0.0016283,"MEAN_MOTION_DOT":0.00215134,"MEAN_MOTION_DDOT":0},{"OBJECT_NAME":"STARLINK-11511 [DTC]","OBJECT_ID":"2024-254G","EPOCH":"2026-03-27T18:19:57.350208","MEAN_MOTION":15.70864112,"ECCENTRICITY":5.3e-5,"INCLINATION":43.0012,"RA_OF_ASC_NODE":114.0513,"ARG_OF_PERICENTER":28.8367,"MEAN_ANOMALY":331.253,"EPHEMERIS_TYPE":0,"CLASSIFICATION_TYPE":"U","NORAD_CAT_ID":62468,"ELEMENT_SET_NO":999,"REV_AT_EPOCH":7224,"BSTAR":0.0013853,"MEAN_MOTION_DOT":0.0018142,"MEAN_MOTION_DDOT":0},{"OBJECT_NAME":"STARLINK-11505 [DTC]","OBJECT_ID":"2024-254H","EPOCH":"2026-03-27T11:58:24.750912","MEAN_MOTION":15.70895192,"ECCENTRICITY":0.0001556,"INCLINATION":43.0008,"RA_OF_ASC_NODE":115.5018,"ARG_OF_PERICENTER":258.7983,"MEAN_ANOMALY":101.271,"EPHEMERIS_TYPE":0,"CLASSIFICATION_TYPE":"U","NORAD_CAT_ID":62469,"ELEMENT_SET_NO":999,"REV_AT_EPOCH":7219,"BSTAR":0.0013268,"MEAN_MOTION_DOT":0.0017381,"MEAN_MOTION_DDOT":0},{"OBJECT_NAME":"STARLINK-11497 [DTC]","OBJECT_ID":"2024-254J","EPOCH":"2026-03-27T18:27:36.301824","MEAN_MOTION":15.70877752,"ECCENTRICITY":0.0001007,"INCLINATION":43.0007,"RA_OF_ASC_NODE":114.0938,"ARG_OF_PERICENTER":25.4653,"MEAN_ANOMALY":334.6264,"EPHEMERIS_TYPE":0,"CLASSIFICATION_TYPE":"U","NORAD_CAT_ID":62470,"ELEMENT_SET_NO":999,"REV_AT_EPOCH":7224,"BSTAR":0.0014895,"MEAN_MOTION_DOT":0.00195552,"MEAN_MOTION_DDOT":0},{"OBJECT_NAME":"STARLINK-11477 [DTC]","OBJECT_ID":"2024-254K","EPOCH":"2026-03-27T10:19:12.481248","MEAN_MOTION":15.70891759,"ECCENTRICITY":0.0002056,"INCLINATION":43.0031,"RA_OF_ASC_NODE":115.8383,"ARG_OF_PERICENTER":273.8825,"MEAN_ANOMALY":86.1808,"EPHEMERIS_TYPE":0,"CLASSIFICATION_TYPE":"U","NORAD_CAT_ID":62471,"ELEMENT_SET_NO":999,"REV_AT_EPOCH":7218,"BSTAR":0.0014166,"MEAN_MOTION_DOT":0.00185846,"MEAN_MOTION_DDOT":0},{"OBJECT_NAME":"STARLINK-11500 [DTC]","OBJECT_ID":"2024-254L","EPOCH":"2026-03-27T11:43:07.376448","MEAN_MOTION":15.70893746,"ECCENTRICITY":0.0001162,"INCLINATION":43.0013,"RA_OF_ASC_NODE":115.4135,"ARG_OF_PERICENTER":280.63,"MEAN_ANOMALY":79.4436,"EPHEMERIS_TYPE":0,"CLASSIFICATION_TYPE":"U","NORAD_CAT_ID":62472,"ELEMENT_SET_NO":999,"REV_AT_EPOCH":7167,"BSTAR":0.0014577,"MEAN_MOTION_DOT":0.00191389,"MEAN_MOTION_DDOT":0}]
